{
  "type": "FeatureCollection",
  "features": [
    {
      "type": "Feature",
      "properties": {
        "norad_id": 35705,
        "name": "COSMOS 2251 DEB",
        "group": "cosmos-2251-debris",
        "lat": -72.97409143173074,
        "lon": 29.316197405740674,
        "alt_km": 685.0618098824561,
        "timestamp": "2025-12-09T07:41:33.608241+00:00",
        "meta_object_name": "COSMOS 2251 DEB",
        "meta_object_id": "1993-036AQA",
        "meta_epoch": "2025-12-03T05:18:59.084352",
        "meta_mean_motion": 14.71707631,
        "meta_eccentricity": 0.0034156,
        "meta_inclination": 74.2742,
        "meta_ra_of_asc_node": 154.0557,
        "meta_arg_of_pericenter": 110.0272,
        "meta_mean_anomaly": 250.4584,
        "meta_ephemeris_type": 0,
        "meta_classification_type": "U",
        "meta_norad_cat_id": 35705,
        "meta_element_set_no": 999,
        "meta_rev_at_epoch": 85786,
        "meta_bstar": 0.0035867,
        "meta_mean_motion_dot": 0.00022615,
        "meta_mean_motion_ddot": 0,
        "tle_line1": "1 35705U 93036AQA 25337.22151718  .00022615  00000+0  35867-2 0  9994",
        "tle_line2": "2 35705  74.2742 154.0557 0034156 110.0272 250.4584 14.71707631857866"
      },
      "geometry": {
        "type": "Point",
        "coordinates": [
          29.316197405740674,
          -72.97409143173074
        ]
      }
    },
    {
      "type": "Feature",
      "properties": {
        "norad_id": 35706,
        "name": "COSMOS 2251 DEB",
        "group": "cosmos-2251-debris",
        "lat": 25.26253070462563,
        "lon": 76.29641445797817,
        "alt_km": 1015.2465582183959,
        "timestamp": "2025-12-09T07:41:33.608252+00:00",
        "meta_object_name": "COSMOS 2251 DEB",
        "meta_object_id": "1993-036AQB",
        "meta_epoch": "2025-12-07T23:55:20.458848",
        "meta_mean_motion": 13.65907522,
        "meta_eccentricity": 0.0341168,
        "meta_inclination": 73.8893,
        "meta_ra_of_asc_node": 70.6438,
        "meta_arg_of_pericenter": 121.3453,
        "meta_mean_anomaly": 242.1528,
        "meta_ephemeris_type": 0,
        "meta_classification_type": "U",
        "meta_norad_cat_id": 35706,
        "meta_element_set_no": 999,
        "meta_rev_at_epoch": 61997,
        "meta_bstar": 0.0014535602,
        "meta_mean_motion_dot": 1.759e-05,
        "meta_mean_motion_ddot": 0,
        "tle_line1": "1 35706U 93036AQB 25341.99676457  .00001759  00000+0  14536-2 0  9992",
        "tle_line2": "2 35706  73.8893  70.6438 0341168 121.3453 242.1528 13.65907522619977"
      },
      "geometry": {
        "type": "Point",
        "coordinates": [
          76.29641445797817,
          25.26253070462563
        ]
      }
    },
    {
      "type": "Feature",
      "properties": {
        "norad_id": 35711,
        "name": "COSMOS 2251 DEB",
        "group": "cosmos-2251-debris",
        "lat": -18.556201415642114,
        "lon": -138.48548741128158,
        "alt_km": 626.7708042461209,
        "timestamp": "2025-12-09T07:41:33.608263+00:00",
        "meta_object_name": "COSMOS 2251 DEB",
        "meta_object_id": "1993-036AQG",
        "meta_epoch": "2025-12-07T22:58:27.397056",
        "meta_mean_motion": 14.63780346,
        "meta_eccentricity": 0.00852914,
        "meta_inclination": 74.0511,
        "meta_ra_of_asc_node": 229.6371,
        "meta_arg_of_pericenter": 331.7264,
        "meta_mean_anomaly": 27.9286,
        "meta_ephemeris_type": 0,
        "meta_classification_type": "U",
        "meta_norad_cat_id": 35711,
        "meta_element_set_no": 999,
        "meta_rev_at_epoch": 87701,
        "meta_bstar": 0.00039815854,
        "meta_mean_motion_dot": 2.156e-05,
        "meta_mean_motion_ddot": 0,
        "tle_line1": "1 35711U 93036AQG 25341.95726154  .00002156  00000+0  39816-3 0  9995",
        "tle_line2": "2 35711  74.0511 229.6371 0085291 331.7264  27.9286 14.63780346877017"
      },
      "geometry": {
        "type": "Point",
        "coordinates": [
          -138.48548741128158,
          -18.556201415642114
        ]
      }
    },
    {
      "type": "Feature",
      "properties": {
        "norad_id": 35716,
        "name": "COSMOS 2251 DEB",
        "group": "cosmos-2251-debris",
        "lat": 67.04140715499265,
        "lon": -21.914847975428135,
        "alt_km": 658.1671993830023,
        "timestamp": "2025-12-09T07:41:33.608274+00:00",
        "meta_object_name": "COSMOS 2251 DEB",
        "meta_object_id": "1993-036AQM",
        "meta_epoch": "2025-12-08T21:25:01.072128",
        "meta_mean_motion": 14.60079471,
        "meta_eccentricity": 0.00885647,
        "meta_inclination": 73.9928,
        "meta_ra_of_asc_node": 201.5651,
        "meta_arg_of_pericenter": 43.5173,
        "meta_mean_anomaly": 332.6319,
        "meta_ephemeris_type": 0,
        "meta_classification_type": "U",
        "meta_norad_cat_id": 35716,
        "meta_element_set_no": 999,
        "meta_rev_at_epoch": 87571,
        "meta_bstar": 0.00016860013,
        "meta_mean_motion_dot": 8.24e-06,
        "meta_mean_motion_ddot": 0,
        "tle_line1": "1 35716U 93036AQM 25342.89237352  .00000824  00000+0  16860-3 0  9995",
        "tle_line2": "2 35716  73.9928 201.5651 0088564  43.5173 332.6319 14.60079471875710"
      },
      "geometry": {
        "type": "Point",
        "coordinates": [
          -21.914847975428135,
          67.04140715499265
        ]
      }
    },
    {
      "type": "Feature",
      "properties": {
        "norad_id": 35717,
        "name": "COSMOS 2251 DEB",
        "group": "cosmos-2251-debris",
        "lat": 36.716575069841255,
        "lon": 31.526447514803607,
        "alt_km": 730.6029486945808,
        "timestamp": "2025-12-09T07:41:33.608284+00:00",
        "meta_object_name": "COSMOS 2251 DEB",
        "meta_object_id": "1993-036AQN",
        "meta_epoch": "2025-12-08T11:00:53.829504",
        "meta_mean_motion": 14.38444389,
        "meta_eccentricity": 0.00767393,
        "meta_inclination": 74.16,
        "meta_ra_of_asc_node": 225.3267,
        "meta_arg_of_pericenter": 86.192,
        "meta_mean_anomaly": 274.8004,
        "meta_ephemeris_type": 0,
        "meta_classification_type": "U",
        "meta_norad_cat_id": 35717,
        "meta_element_set_no": 999,
        "meta_rev_at_epoch": 74038,
        "meta_bstar": 0.0017775827,
        "meta_mean_motion_dot": 5.593e-05,
        "meta_mean_motion_ddot": 0,
        "tle_line1": "1 35717U 93036AQN 25342.45895636  .00005593  00000+0  17776-2 0  9997",
        "tle_line2": "2 35717  74.1600 225.3267 0076739  86.1920 274.8004 14.38444389740383"
      },
      "geometry": {
        "type": "Point",
        "coordinates": [
          31.526447514803607,
          36.716575069841255
        ]
      }
    },
    {
      "type": "Feature",
      "properties": {
        "norad_id": 35718,
        "name": "COSMOS 2251 DEB",
        "group": "cosmos-2251-debris",
        "lat": -50.81854585994245,
        "lon": -22.84375083907767,
        "alt_km": 666.8358720639908,
        "timestamp": "2025-12-09T07:41:33.608295+00:00",
        "meta_object_name": "COSMOS 2251 DEB",
        "meta_object_id": "1993-036AQP",
        "meta_epoch": "2025-12-07T03:56:54.575520",
        "meta_mean_motion": 14.6849943,
        "meta_eccentricity": 0.00115176,
        "meta_inclination": 74.0311,
        "meta_ra_of_asc_node": 140.7573,
        "meta_arg_of_pericenter": 190.0209,
        "meta_mean_anomaly": 170.0733,
        "meta_ephemeris_type": 0,
        "meta_classification_type": "U",
        "meta_norad_cat_id": 35718,
        "meta_element_set_no": 999,
        "meta_rev_at_epoch": 65758,
        "meta_bstar": 0.0025274033,
        "meta_mean_motion_dot": 0.00014666,
        "meta_mean_motion_ddot": 0,
        "tle_line1": "1 35718U 93036AQP 25341.16452055  .00014666  00000+0  25274-2 0  9992",
        "tle_line2": "2 35718  74.0311 140.7573 0011517 190.0209 170.0733 14.68499430657585"
      },
      "geometry": {
        "type": "Point",
        "coordinates": [
          -22.84375083907767,
          -50.81854585994245
        ]
      }
    },
    {
      "type": "Feature",
      "properties": {
        "norad_id": 35721,
        "name": "COSMOS 2251 DEB",
        "group": "cosmos-2251-debris",
        "lat": -42.847128612075664,
        "lon": 168.55558125826852,
        "alt_km": 682.9099093169725,
        "timestamp": "2025-12-09T07:41:33.608306+00:00",
        "meta_object_name": "COSMOS 2251 DEB",
        "meta_object_id": "1993-036AQS",
        "meta_epoch": "2025-11-29T21:54:16.243200",
        "meta_mean_motion": 14.34192363,
        "meta_eccentricity": 0.01464404,
        "meta_inclination": 73.9503,
        "meta_ra_of_asc_node": 201.3539,
        "meta_arg_of_pericenter": 350.3358,
        "meta_mean_anomaly": 9.498,
        "meta_ephemeris_type": 0,
        "meta_classification_type": "U",
        "meta_norad_cat_id": 35721,
        "meta_element_set_no": 999,
        "meta_rev_at_epoch": 57605,
        "meta_bstar": 0.0014885779,
        "meta_mean_motion_dot": 4.68e-05,
        "meta_mean_motion_ddot": 0,
        "tle_line1": "1 35721U 93036AQS 25333.91268800  .00004680  00000+0  14886-2 0  9995",
        "tle_line2": "2 35721  73.9503 201.3539 0146440 350.3358   9.4980 14.34192363576055"
      },
      "geometry": {
        "type": "Point",
        "coordinates": [
          168.55558125826852,
          -42.847128612075664
        ]
      }
    }
  ]
}